     2.100          NAVIGATION                              RINEX VERSION / TYPE
fic2rin                                 11/16/2012 00:17:12 PGM / RUN BY / DATE
                                                            END OF HEADER
25 12 11 15 14  0  0.0  .512734986842D-04  .193267624127D-11  .000000000000D+00
     .210000000000D+02 -.137781250000D+03  .413160066918D-08 -.881283467028D+00
    -.717863440514D-05  .182602019049D-02  .102985650301D-04  .515363722229D+04
     .396000000000D+06  .149011611938D-07 -.593554462897D-01  .316649675369D-07
     .971113885854D+00  .187843750000D+03  .695993781426D+00 -.784568394709D-08
    -.400016662300D-10  .100000000000D+01  .171400000000D+04  .000000000000D+00
     .240000000000D+01  .000000000000D+00  .512227416039D-08  .210000000000D+02
     .388806000000D+06  .400000000000D+01
26 12 11 15 14  0  0.0 -.209184363484D-03  .135287336889D-10  .000000000000D+00
     .980000000000D+02  .146781250000D+03  .392373486788D-08  .200567370811D+01
     .730715692043D-05  .208560990868D-01  .661052763462D-05  .515366016388D+04
     .396000000000D+06  .745058059692D-08 -.205652759323D+01 -.495463609695D-06
     .981265040759D+00  .258843750000D+03  .121067215461D+01 -.780925385820D-08
     .367872466222D-09  .100000000000D+01  .171400000000D+04  .000000000000D+00
     .240000000000D+01  .000000000000D+00 -.605359673500D-08  .980000000000D+02
     .388806000000D+06  .400000000000D+01
27 12 11 15 14  0  0.0 -.213146209717D-03  .306954461848D-11  .000000000000D+00
     .530000000000D+02 -.151000000000D+03  .514271421469D-08 -.219683573267D+01
    -.798702239990D-05  .560776959173D-02  .107958912849D-04  .515361223984D+04
     .396000000000D+06  .707805156708D-07 -.436513118295D-01 -.298023223877D-07
     .975993710970D+00  .175500000000D+03  .876526951277D+00 -.769424906779D-08
     .714315468392D-11  .100000000000D+01  .171400000000D+04  .000000000000D+00
     .240000000000D+01  .630000000000D+02 -.190921127796D-07  .530000000000D+02
     .388806000000D+06  .400000000000D+01
29 12 11 15 14  0  0.0  .377288088202D-03  .409272615798D-11  .000000000000D+00
     .480000000000D+02  .211250000000D+02  .468698094586D-08 -.128316387818D+00
     .115483999252D-05  .175145582762D-02  .979192554951D-05  .515374785233D+04
     .396000000000D+06 -.316649675369D-07  .104197353559D+01 -.167638063431D-07
     .964382228814D+00  .194906250000D+03 -.110054217187D+01 -.799676166865D-08
     .716458414797D-09  .100000000000D+01  .171400000000D+04  .000000000000D+00
     .240000000000D+01  .000000000000D+00 -.931322574615D-08  .480000000000D+02
     .388806000000D+06  .400000000000D+01
30 12 11 15 14  0  0.0 -.320058315992D-03  .144382283906D-10  .000000000000D+00
     .600000000000D+02 -.166343750000D+03  .418946022212D-08 -.309097809016D+01
    -.873766839504D-05  .109840767691D-01  .964850187302D-05  .515375069618D+04
     .396000000000D+06  .193715095520D-06 -.151764527407D+00  .465661287308D-07
     .962229936922D+00  .188593750000D+03  .161613124521D+01 -.781603985515D-08
    -.126790995640D-09  .100000000000D+01  .171400000000D+04  .000000000000D+00
     .685000000000D+01  .000000000000D+00 -.465661287308D-08  .600000000000D+02
     .388806000000D+06  .400000000000D+01
31 12 11 15 14  0  0.0  .286891590804D-03  .216004991671D-11  .000000000000D+00
     .220000000000D+02 -.512812500000D+02  .440804075545D-08  .499004174418D+00
    -.268593430519D-05  .799246830866D-02  .484287738800D-07  .515376454544D+04
     .396000000000D+06 -.596046447754D-07 -.107688032336D+01 -.173225998878D-06
     .980650941397D+00  .385250000000D+03 -.848804854095D+00 -.856392815055D-08
    -.617882880159D-10  .100000000000D+01  .171400000000D+04  .000000000000D+00
     .240000000000D+01  .000000000000D+00 -.135041773319D-07  .220000000000D+02
     .388806000000D+06  .400000000000D+01
32 12 11 15 14  0  0.0 -.508126337081D-03 -.352429196937D-11  .000000000000D+00
     .620000000000D+02  .478750000000D+02  .447340062081D-08  .113668711352D+01
     .243447721004D-05  .118034034967D-01  .118892639875D-04  .515353641701D+04
     .396000000000D+06  .288709998131D-06 -.310589587543D+01  .763684511185D-07
     .950911747897D+00  .140937500000D+03 -.468400839598D+00 -.781246827781D-08
    -.692886004340D-09  .100000000000D+01  .171400000000D+04  .000000000000D+00
     .240000000000D+01  .000000000000D+00 -.325962901115D-08  .620000000000D+02
     .388806000000D+06  .400000000000D+01
26 12 11 15 13 59 44.0 -.209185294807D-03  .135287336889D-10  .000000000000D+00
     .300000000000D+01  .146781250000D+03  .392373486788D-08  .200334013433D+01
     .730715692043D-05  .208560972242D-01  .661052763462D-05  .515366015816D+04
     .395984000000D+06  .745058059692D-08 -.205652747913D+01 -.495463609695D-06
     .981265072943D+00  .258843750000D+03  .121067198638D+01 -.780889670046D-08
     .367515308488D-09  .100000000000D+01  .171400000000D+04  .000000000000D+00
     .240000000000D+01  .000000000000D+00 -.605359673500D-08  .300000000000D+01
     .390546000000D+06  .400000000000D+01
19 12 11 15 13 59 44.0 -.322381034493D-03 -.341060513165D-11  .000000000000D+00
     .500000000000D+01  .140625000000D+02  .472376819248D-08  .253381822027D+01
     .778585672379D-06  .865585193969D-02  .986456871033D-05  .515363385773D+04
     .395984000000D+06 -.186264514923D-06  .108582991196D+01  .298023223877D-07
     .961064043878D+00  .189343750000D+03  .270456584917D+00 -.784318384295D-08
     .773603652269D-09  .100000000000D+01  .171400000000D+04  .000000000000D+00
     .240000000000D+01  .000000000000D+00 -.144354999065D-07  .500000000000D+01
     .393576000000D+06  .400000000000D+01
 9 12 11 15 13 59 44.0  .199910253286D-03  .272848410532D-11  .000000000000D+00
     .600000000000D+01 -.332500000000D+02  .427267797419D-08 -.485586032322D-01
    -.191852450371D-05  .172321283026D-01  .832602381706D-06  .515365652084D+04
     .395984000000D+06 -.212341547012D-06 -.110506637184D+01 -.298023223877D-07
     .984276306945D+00  .376343750000D+03  .164791832214D+01 -.863571685513D-08
    -.285726187357D-10  .100000000000D+01  .171400000000D+04  .000000000000D+00
     .240000000000D+01  .630000000000D+02 -.558793544769D-08  .600000000000D+01
     .395616000000D+06  .400000000000D+01
 9 12 11 15 15 59 44.0  .199929811060D-03  .272848410532D-11  .000000000000D+00
     .900000000000D+01 -.150000000000D+02  .437446792843D-08  .100171028205D+01
    -.114552676678D-05  .172295456287D-01  .372529029846D-06  .515365091515D+04
     .403184000000D+06 -.178813934326D-06 -.110512856049D+01 -.197440385818D-06
     .984275966085D+00  .385375000000D+03  .164784122343D+01 -.859535803116D-08
    -.517878714584D-10  .100000000000D+01  .171400000000D+04  .000000000000D+00
     .240000000000D+01  .630000000000D+02 -.558793544769D-08  .900000000000D+01
     .396006000000D+06  .400000000000D+01
19 12 11 15 15 59 44.0 -.322405714542D-03 -.341060513165D-11  .000000000000D+00
     .600000000000D+01  .202500000000D+02  .467876631797D-08 -.269911730880D+01
     .944361090660D-06  .865556893405D-02  .100210309029D-04  .515363431740D+04
     .403184000000D+06 -.141561031342D-06  .108577337457D+01 -.912696123123D-07
     .961069662946D+00  .188968750000D+03  .270413822358D+00 -.785639867911D-08
     .805390690612D-09  .100000000000D+01  .171400000000D+04  .000000000000D+00
     .240000000000D+01  .000000000000D+00 -.144354999065D-07  .600000000000D+01
     .396006000000D+06  .400000000000D+01
26 12 11 15 15 59 44.0 -.209087971598D-03  .135287336889D-10  .000000000000D+00
     .180000000000D+02  .169468750000D+03  .374979905132D-08  .305346268539D+01
     .861473381519D-05  .208534293342D-01  .651925802231D-05  .515366548920D+04
     .403184000000D+06  .176951289177D-06 -.205658187481D+01 -.201165676117D-06
     .981268325010D+00  .259281250000D+03  .121073211524D+01 -.757960143511D-08
     .303226916332D-09  .100000000000D+01  .171400000000D+04  .000000000000D+00
     .240000000000D+01  .000000000000D+00 -.605359673500D-08  .180000000000D+02
     .396006000000D+06  .400000000000D+01
 1 12 11 15 16  0  0.0  .282615423203D-03  .181898940355D-11  .000000000000D+00
     .190000000000D+02 -.921875000000D+01  .518878756240D-08  .191871571723D+01
    -.437721610069D-06  .141931499820D-02  .526569783688D-05  .515370033646D+04
     .403200000000D+06 -.540167093277D-07  .204176432283D+01  .484287738800D-07
     .959720208793D+00  .276781250000D+03  .523689196614D+00 -.823570019283D-08
    -.179650340301D-09  .100000000000D+01  .171400000000D+04  .000000000000D+00
     .240000000000D+01  .000000000000D+00  .838190317154D-08  .190000000000D+02
     .396006000000D+06  .400000000000D+01
 2 12 11 15 16  0  0.0  .408998690546D-03  .102318153949D-11  .000000000000D+00
     .330000000000D+02 -.615625000000D+01  .554808824300D-08  .292958516260D+01
    -.428408384323D-06  .115806587273D-01  .501424074173D-05  .515377616501D+04
     .403200000000D+06 -.132247805595D-06  .202432310628D+01 -.134110450745D-06
     .938233573171D+00  .270843750000D+03 -.272289095936D+01 -.829355974577D-08
    -.125719522437D-09  .100000000000D+01  .171400000000D+04  .000000000000D+00
     .240000000000D+01  .000000000000D+00 -.176951289177D-07  .330000000000D+02
     .396006000000D+06  .400000000000D+01
 3 12 11 15 16  0  0.0  .128810759634D-03  .522959453519D-11  .000000000000D+00
     .710000000000D+02  .275000000000D+01  .501163732624D-08  .311242216072D+01
    -.968575477600D-07  .158553364454D-01  .115409493446D-04  .515375804710D+04
     .403200000000D+06  .132247805595D-06  .857195735266D+00 -.147148966789D-06
     .932615701496D+00  .137937500000D+03  .125402947111D+01 -.788139972051D-08
     .749316926343D-09  .100000000000D+01  .171400000000D+04  .000000000000D+00
     .340000000000D+01  .000000000000D+00 -.465661287308D-08  .710000000000D+02
     .396006000000D+06  .400000000000D+01
